{
  "type": "FeatureCollection",
  "features": [
    {
      "type": "Feature",
      "properties": {
        "norad_id": 22490,
        "name": "SCD 1",
        "group": "resource",
        "lat": 5.407250078548336,
        "lon": -84.56023280217666,
        "alt_km": 708.43437248191,
        "timestamp": "2025-12-15T04:01:20.099032+00:00",
        "meta_object_name": "SCD 1",
        "meta_object_id": "1993-009B",
        "meta_epoch": "2025-12-14T03:13:19.104096",
        "meta_mean_motion": 14.46000296,
        "meta_eccentricity": 0.00418525,
        "meta_inclination": 24.9696,
        "meta_ra_of_asc_node": 270.0794,
        "meta_arg_of_pericenter": 339.8321,
        "meta_mean_anomaly": 42.8273,
        "meta_ephemeris_type": 0,
        "meta_classification_type": "U",
        "meta_norad_cat_id": 22490,
        "meta_element_set_no": 999,
        "meta_rev_at_epoch": 73430,
        "meta_bstar": 0.00012588183,
        "meta_mean_motion_dot": 6.46e-06,
        "meta_mean_motion_ddot": 0,
        "tle_line1": "1 22490U 93009B   25348.13424889  .00000646  00000+0  12588-3 0  9991",
        "tle_line2": "2 22490  24.9696 270.0794 0041852 339.8321  42.8273 14.46000296734308"
      },
      "geometry": {
        "type": "Point",
        "coordinates": [
          -84.56023280217666,
          5.407250078548336
        ]
      }
    },
    {
      "type": "Feature",
      "properties": {
        "norad_id": 25397,
        "name": "TECHSAT 1B (GO-32)",
        "group": "resource",
        "lat": 11.289878665113257,
        "lon": -29.375906742452894,
        "alt_km": 810.8022146147068,
        "timestamp": "2025-12-15T04:01:20.099072+00:00",
        "meta_object_name": "TECHSAT 1B (GO-32)",
        "meta_object_id": "1998-043D",
        "meta_epoch": "2025-12-13T21:37:21.693792",
        "meta_mean_motion": 14.24377408,
        "meta_eccentricity": 0.00020263,
        "meta_inclination": 98.9921,
        "meta_ra_of_asc_node": 331.1398,
        "meta_arg_of_pericenter": 55.4203,
        "meta_mean_anomaly": 304.7166,
        "meta_ephemeris_type": 0,
        "meta_classification_type": "U",
        "meta_norad_cat_id": 25397,
        "meta_element_set_no": 999,
        "meta_rev_at_epoch": 42495,
        "meta_bstar": 8.3391826e-05,
        "meta_mean_motion_dot": 1.46e-06,
        "meta_mean_motion_ddot": 0,
        "tle_line1": "1 25397U 98043D   25347.90094553  .00000146  00000+0  83392-4 0  9995",
        "tle_line2": "2 25397  98.9921 331.1398 0002026  55.4203 304.7166 14.24377408424954"
      },
      "geometry": {
        "type": "Point",
        "coordinates": [
          -29.375906742452894,
          11.289878665113257
        ]
      }
    },
    {
      "type": "Feature",
      "properties": {
        "norad_id": 25504,
        "name": "SCD 2",
        "group": "resource",
        "lat": 15.716077709269223,
        "lon": 164.087943385218,
        "alt_km": 730.5434662980142,
        "timestamp": "2025-12-15T04:01:20.099088+00:00",
        "meta_object_name": "SCD 2",
        "meta_object_id": "1998-060A",
        "meta_epoch": "2025-12-13T17:38:54.244320",
        "meta_mean_motion": 14.45424097,
        "meta_eccentricity": 0.00166891,
        "meta_inclination": 24.9935,
        "meta_ra_of_asc_node": 135.7566,
        "meta_arg_of_pericenter": 324.2474,
        "meta_mean_anomaly": 167.6717,
        "meta_ephemeris_type": 0,
        "meta_classification_type": "U",
        "meta_norad_cat_id": 25504,
        "meta_element_set_no": 999,
        "meta_rev_at_epoch": 43346,
        "meta_bstar": 0.00010752318,
        "meta_mean_motion_dot": 5.67e-06,
        "meta_mean_motion_ddot": 0,
        "tle_line1": "1 25504U 98060A   25347.73535005  .00000567  00000+0  10752-3 0  9993",
        "tle_line2": "2 25504  24.9935 135.7566 0016689 324.2474 167.6717 14.45424097433464"
      },
      "geometry": {
        "type": "Point",
        "coordinates": [
          164.087943385218,
          15.716077709269223
        ]
      }
    },
    {
      "type": "Feature",
      "properties": {
        "norad_id": 25757,
        "name": "DLR-TUBSAT",
        "group": "resource",
        "lat": 64.6422426536733,
        "lon": 172.50682999543605,
        "alt_km": 708.4462307168187,
        "timestamp": "2025-12-15T04:01:20.099101+00:00",
        "meta_object_name": "DLR-TUBSAT",
        "meta_object_id": "1999-029B",
        "meta_epoch": "2025-12-14T06:00:14.959296",
        "meta_mean_motion": 14.52358401,
        "meta_eccentricity": 0.00139912,
        "meta_inclination": 98.6565,
        "meta_ra_of_asc_node": 332.8106,
        "meta_arg_of_pericenter": 188.0788,
        "meta_mean_anomaly": 172.0183,
        "meta_ephemeris_type": 0,
        "meta_classification_type": "U",
        "meta_norad_cat_id": 25757,
        "meta_element_set_no": 999,
        "meta_rev_at_epoch": 40640,
        "meta_bstar": 6.2487225e-05,
        "meta_mean_motion_dot": 2.06e-06,
        "meta_mean_motion_ddot": 0,
        "tle_line1": "1 25757U 99029B   25348.25017314  .00000206  00000+0  62487-4 0  9998",
        "tle_line2": "2 25757  98.6565 332.8106 0013991 188.0788 172.0183 14.52358401406402"
      },
      "geometry": {
        "type": "Point",
        "coordinates": [
          172.50682999543605,
          64.6422426536733
        ]
      }
    },
    {
      "type": "Feature",
      "properties": {
        "norad_id": 25994,
        "name": "TERRA",
        "group": "resource",
        "lat": -70.11724347037634,
        "lon": -162.04393755035218,
        "alt_km": 699.9666411153885,
        "timestamp": "2025-12-15T04:01:20.099113+00:00",
        "meta_object_name": "TERRA",
        "meta_object_id": "1999-068A",
        "meta_epoch": "2025-12-14T07:27:58.182048",
        "meta_mean_motion": 14.60904074,
        "meta_eccentricity": 0.00035992,
        "meta_inclination": 97.9749,
        "meta_ra_of_asc_node": 39.9379,
        "meta_arg_of_pericenter": 91.3882,
        "meta_mean_anomaly": 338.4056,
        "meta_ephemeris_type": 0,
        "meta_classification_type": "U",
        "meta_norad_cat_id": 25994,
        "meta_element_set_no": 999,
        "meta_rev_at_epoch": 38261,
        "meta_bstar": 0.00014673436,
        "meta_mean_motion_dot": 6.74e-06,
        "meta_mean_motion_ddot": 0,
        "tle_line1": "1 25994U 99068A   25348.31109007  .00000674  00000+0  14673-3 0  9994",
        "tle_line2": "2 25994  97.9749  39.9379 0003599  91.3882 338.4056 14.60904074382617"
      },
      "geometry": {
        "type": "Point",
        "coordinates": [
          -162.04393755035218,
          -70.11724347037634
        ]
      }
    },
    {
      "type": "Feature",
      "properties": {
        "norad_id": 27004,
        "name": "MAROC-TUBSAT",
        "group": "resource",
        "lat": 10.412127698369622,
        "lon": -20.52712093607534,
        "alt_km": 998.6360900014133,
        "timestamp": "2025-12-15T04:01:20.099126+00:00",
        "meta_object_name": "MAROC-TUBSAT",
        "meta_object_id": "2001-056D",
        "meta_epoch": "2025-12-14T08:14:37.815936",
        "meta_mean_motion": 13.70252956,
        "meta_eccentricity": 0.00191098,
        "meta_inclination": 99.7912,
        "meta_ra_of_asc_node": 156.8165,
        "meta_arg_of_pericenter": 255.8923,
        "meta_mean_anomaly": 170.5435,
        "meta_ephemeris_type": 0,
        "meta_classification_type": "U",
        "meta_norad_cat_id": 27004,
        "meta_element_set_no": 999,
        "meta_rev_at_epoch": 20087,
        "meta_bstar": 3.79301e-05,
        "meta_mean_motion_dot": -1.3e-07,
        "meta_mean_motion_ddot": 0,
        "tle_line1": "1 27004U 01056D   25348.34349324 -.00000013  00000+0  37930-4 0  9999",
        "tle_line2": "2 27004  99.7912 156.8165 0019109 255.8923 170.5435 13.70252956200870"
      },
      "geometry": {
        "type": "Point",
        "coordinates": [
          -20.52712093607534,
          10.412127698369622
        ]
      }
    },
    {
      "type": "Feature",
      "properties": {
        "norad_id": 27424,
        "name": "AQUA",
        "group": "resource",
        "lat": 44.52982546542446,
        "lon": 138.44798840213116,
        "alt_km": 682.7713768970107,
        "timestamp": "2025-12-15T04:01:20.099137+00:00",
        "meta_object_name": "AQUA",
        "meta_object_id": "2002-022A",
        "meta_epoch": "2025-12-14T08:26:00.598848",
        "meta_mean_motion": 14.61814134,
        "meta_eccentricity": 0.00011511,
        "meta_inclination": 98.4039,
        "meta_ra_of_asc_node": 309.2565,
        "meta_arg_of_pericenter": 113.9889,
        "meta_mean_anomaly": 48.0491,
        "meta_ephemeris_type": 0,
        "meta_classification_type": "U",
        "meta_norad_cat_id": 27424,
        "meta_element_set_no": 999,
        "meta_rev_at_epoch": 25626,
        "meta_bstar": 0.00032213199,
        "meta_mean_motion_dot": 1.559e-05,
        "meta_mean_motion_ddot": 0,
        "tle_line1": "1 27424U 02022A   25348.35139582  .00001559  00000+0  32213-3 0  9996",
        "tle_line2": "2 27424  98.4039 309.2565 0001151 113.9889  48.0491 14.61814134256261"
      },
      "geometry": {
        "type": "Point",
        "coordinates": [
          138.44798840213116,
          44.52982546542446
        ]
      }
    }
  ]
}